ONEWEB-0068             
1 45446U 20020Y   26162.58367854  .00000188  00000+0  49364-3 0  9995
2 45446  87.8902  22.1789 0001782  77.7646 282.3681 13.11419480301863
ONEWEB-0046             
1 45447U 20020Z   26162.57532371 -.00000422  00000+0 -12251-2 0  9990
2 45447  87.8893  22.1870 0002034  79.3340 280.8017 13.11418487301877
ONEWEB-0063             
1 45448U 20020AA  26162.60429817  .00000530  00000+0  14603-2 0  9996
2 45448  87.8900  22.1794 0002120  86.9573 273.1798 13.11418158301966
ONEWEB-0019             
1 45449U 20020AB  26162.56671117 -.00000354  00000+0 -10333-2 0  9996
2 45449  87.8895  22.1740 0001689  88.1905 271.9416 13.11418909301803
ONEWEB-0094             
1 45450U 20020AC  26162.58364962 -.00000111  00000+0 -31851-3 0  9997
2 45450  87.9145   6.9632 0001652  83.7647 276.3672 13.17648281305573
ONEWEB-0087             
1 45451U 20020AD  26162.61419422  .00000247  00000+0  66134-3 0  9994
2 45451  87.8908  22.1511 0001737  75.0612 285.0708 13.11415486301853
ONEWEB-0082             
1 45452U 20020AE  26162.61081651  .00000355  00000+0  96602-3 0  9997
2 45452  87.8899  22.1687 0001974  70.6572 289.4770 13.11416124301943
ONEWEB-0050             
1 45453U 20020AF  26162.43533498  .00001744  00000+0  17721-3 0  9997
2 45453  88.9298 233.9912 0004020  40.6298 319.5230 14.90357069339520
ONEWEB-0034             
1 45454U 20020AG  26162.57209058  .00008597  00000+0  24211-1 0  9998
2 45454  87.8899  22.1863 0001647  73.6841 286.4468 13.11380474301859
ONEWEB-0060             
1 45455U 20020AH  26162.60331217  .00000554  00000+0  15279-2 0  9996
2 45455  87.8892  22.1780 0001543  50.2056 309.9207 13.11416776301818
ONEWEB-0086             
1 45456U 20020AJ  26162.58197648  .00000124  00000+0  31514-3 0  9996
2 45456  87.8901  22.1775 0001100  71.6132 288.5115 13.11417201301875
ONEWEB-0088             
1 45457U 20020AK  26162.56006850 -.00000448  00000+0 -13003-2 0  9992
2 45457  87.8911  22.1539 0002210  81.5875 278.5503 13.11417868301804
ONEWEB-0102             
1 47258U 20100A   26162.56864181 -.00000038  00000+0 -14202-3 0  9999
2 47258  87.8939 351.7934 0001541  94.5312 265.5993 13.12445694263996
ONEWEB-0109             
1 47259U 20100B   26162.57711960  .00000222  00000+0  58246-3 0  9996
2 47259  87.8948 351.7745 0001770  94.6327 265.5004 13.12445199263823
ONEWEB-0110             
1 47260U 20100C   26162.52798925  .00000200  00000+0  52061-3 0  9994
2 47260  87.8948 351.7684 0001539  85.8196 274.3108 13.12442760263987
ONEWEB-0111             
1 47261U 20100D   26162.55846956 -.00000295  00000+0 -85543-3 0  9993
2 47261  87.8948 351.7811 0001800  86.5501 273.5833 13.12442245263826
ONEWEB-0114             
1 47262U 20100E   26162.51274335  .00000460  00000+0  12433-2 0  9995
2 47262  87.8949 351.7876 0001967  96.1028 264.0325 13.12444254263771
ONEWEB-0117             
1 47263U 20100F   26162.58051306  .00000318  00000+0  84901-3 0  9996
2 47263  87.8946 351.7653 0001771  89.6354 270.4978 13.12443845263796
ONEWEB-0118             
1 47264U 20100G   26162.53815118 -.00000132  00000+0 -40308-3 0  9990
2 47264  87.8947 351.7761 0002111  92.9028 267.2343 13.12441714263986
ONEWEB-0119             
1 47265U 20100H   26162.56356671 -.00000216  00000+0 -63535-3 0  9998
2 47265  87.8937 351.7885 0001818  89.9719 270.1618 13.12444117263965
ONEWEB-0120             
1 47266U 20100J   26162.51119434  .00000506  00000+0  13702-2 0  9998
2 47266  87.8938 351.8001 0001796  95.8535 264.2798 13.12444424263981
ONEWEB-0121             
1 47267U 20100K   26162.57542750  .00000170  00000+0  43814-3 0  9991
2 47267  87.8948 351.7728 0001790  79.3647 280.7683 13.12444673263907
ONEWEB-0122             
1 47268U 20100L   26162.56950373 -.00000024  00000+0 -10128-3 0  9997
2 47268  87.8950 351.7783 0001694  93.6520 266.4802 13.12444137263813
ONEWEB-0123             
1 47269U 20100M   26162.56526007 -.00000119  00000+0 -36561-3 0  9995
2 47269  87.8937 351.7871 0001920  90.2980 269.8368 13.12445154263951
ONEWEB-0124             
1 47270U 20100N   26162.55509228 -.00000353  00000+0 -10160-2 0  9998
2 47270  87.8936 351.7924 0001815  86.1607 273.9729 13.12444260263835
ONEWEB-0125             
1 47271U 20100P   26162.53306746  .00000064  00000+0  14298-3 0  9991
2 47271  87.8948 351.7792 0002011  82.5873 277.5484 13.12443394263897
ONEWEB-0126             
1 47272U 20100Q   26162.55354213 -.00000397  00000+0 -11382-2 0  9997
2 47272  87.8940 351.7912 0001843  93.6421 266.4919 13.12442841263962
ONEWEB-0127             
1 47273U 20100R   26162.59575637  .00000449  00000+0  12122-2 0  9996
2 47273  87.8936 351.7819 0001777  94.0711 266.0621 13.12443260263992
ONEWEB-0128             
1 47274U 20100S   26162.54153486 -.00000217  00000+0 -63759-3 0  9994
2 47274  87.8935 351.8065 0001523  84.6489 275.4814 13.12442229264007
ONEWEB-0129             
1 47275U 20100T   26162.52121644  .00000439  00000+0  11845-2 0  9996
2 47275  87.8947 351.7838 0002163 121.2681 238.8660 13.12442717263936
