OBJECT_NAME,OBJECT_ID,EPOCH,MEAN_MOTION,ECCENTRICITY,INCLINATION,RA_OF_ASC_NODE,ARG_OF_PERICENTER,MEAN_ANOMALY,EPHEMERIS_TYPE,CLASSIFICATION_TYPE,NORAD_CAT_ID,ELEMENT_SET_NO,REV_AT_EPOCH,BSTAR,MEAN_MOTION_DOT,MEAN_MOTION_DDOT
ONEWEB-0068,2020-020Y,2026-06-11T14:00:29.825856,13.11419480,.00017825,87.8902,22.1789,77.7646,282.3681,0,U,45446,999,30186,.49363845E-3,.188E-5,0
ONEWEB-0046,2020-020Z,2026-06-11T13:48:27.968544,13.11418487,.0002034,87.8893,22.1870,79.3340,280.8017,0,U,45447,999,30187,-.12251196E-2,-.422E-5,0
ONEWEB-0063,2020-020AA,2026-06-11T14:30:11.361888,13.11418158,.00021202,87.8900,22.1794,86.9573,273.1798,0,U,45448,999,30196,.14602782E-2,.53E-5,0
ONEWEB-0019,2020-020AB,2026-06-11T13:36:03.845088,13.11418909,.00016895,87.8895,22.1740,88.1905,271.9416,0,U,45449,999,30180,-.1033329E-2,-.354E-5,0
ONEWEB-0094,2020-020AC,2026-06-11T14:00:27.327168,13.17648281,.00016525,87.9145,6.9632,83.7647,276.3672,0,U,45450,999,30557,-.31851435E-3,-.111E-5,0
ONEWEB-0087,2020-020AD,2026-06-11T14:44:26.380608,13.11415486,.0001737,87.8908,22.1511,75.0612,285.0708,0,U,45451,999,30185,.66134186E-3,.247E-5,0
ONEWEB-0082,2020-020AE,2026-06-11T14:39:34.546464,13.11416124,.00019742,87.8899,22.1687,70.6572,289.4770,0,U,45452,999,30194,.96602166E-3,.355E-5,0
ONEWEB-0050,2020-020AF,2026-06-11T10:26:52.942272,14.90357069,.000402,88.9298,233.9912,40.6298,319.5230,0,U,45453,999,33952,.17720619E-3,.1744E-4,0
ONEWEB-0034,2020-020AG,2026-06-11T13:43:48.626112,13.11380474,.00016474,87.8899,22.1863,73.6841,286.4468,0,U,45454,999,30185,.24211217E-1,.8597E-4,0
ONEWEB-0060,2020-020AH,2026-06-11T14:28:46.171488,13.11416776,.00015432,87.8892,22.1780,50.2056,309.9207,0,U,45455,999,30181,.15278745E-2,.554E-5,0
ONEWEB-0086,2020-020AJ,2026-06-11T13:58:02.767872,13.11417201,.00011001,87.8901,22.1775,71.6132,288.5115,0,U,45456,999,30187,.31513798E-3,.124E-5,0
ONEWEB-0088,2020-020AK,2026-06-11T13:26:29.918400,13.11417868,.00022101,87.8911,22.1539,81.5875,278.5503,0,U,45457,999,30180,-.13002535E-2,-.448E-5,0
ONEWEB-0102,2020-100A,2026-06-11T13:38:50.652384,13.12445694,.0001541,87.8939,351.7934,94.5312,265.5993,0,U,47258,999,26399,-.14202434E-3,-.38E-6,0
ONEWEB-0109,2020-100B,2026-06-11T13:51:03.133440,13.12445199,.00017706,87.8948,351.7745,94.6327,265.5004,0,U,47259,999,26382,.58246083E-3,.222E-5,0
ONEWEB-0110,2020-100C,2026-06-11T12:40:18.271200,13.12442760,.00015396,87.8948,351.7684,85.8196,274.3108,0,U,47260,999,26398,.52060531E-3,.2E-5,0
ONEWEB-0111,2020-100D,2026-06-11T13:24:11.769984,13.12442245,.00018008,87.8948,351.7811,86.5501,273.5833,0,U,47261,999,26382,-.85543194E-3,-.295E-5,0
ONEWEB-0114,2020-100E,2026-06-11T12:18:21.025440,13.12444254,.00019678,87.8949,351.7876,96.1028,264.0325,0,U,47262,999,26377,.12432925E-2,.46E-5,0
ONEWEB-0117,2020-100F,2026-06-11T13:55:56.328384,13.12443845,.00017717,87.8946,351.7653,89.6354,270.4978,0,U,47263,999,26379,.84900727E-3,.318E-5,0
ONEWEB-0118,2020-100G,2026-06-11T12:54:56.261952,13.12441714,.00021113,87.8947,351.7761,92.9028,267.2343,0,U,47264,999,26398,-.4030824E-3,-.132E-5,0
ONEWEB-0119,2020-100H,2026-06-11T13:31:32.163744,13.12444117,.00018185,87.8937,351.7885,89.9719,270.1618,0,U,47265,999,26396,-.63535368E-3,-.216E-5,0
ONEWEB-0120,2020-100J,2026-06-11T12:16:07.190976,13.12444424,.00017967,87.8938,351.8001,95.8535,264.2798,0,U,47266,999,26398,.13701755E-2,.506E-5,0
ONEWEB-0121,2020-100K,2026-06-11T13:48:36.936000,13.12444673,.00017908,87.8948,351.7728,79.3647,280.7683,0,U,47267,999,26390,.43813729E-3,.17E-5,0
ONEWEB-0122,2020-100L,2026-06-11T13:40:05.122272,13.12444137,.00016949,87.8950,351.7783,93.6520,266.4802,0,U,47268,999,26381,-.10128352E-3,-.24E-6,0
ONEWEB-0123,2020-100M,2026-06-11T13:33:58.470048,13.12445154,.00019201,87.8937,351.7871,90.2980,269.8368,0,U,47269,999,26395,-.36561291E-3,-.119E-5,0
ONEWEB-0124,2020-100N,2026-06-11T13:19:19.972992,13.12444260,.0001815,87.8936,351.7924,86.1607,273.9729,0,U,47270,999,26383,-.1015971E-2,-.353E-5,0
ONEWEB-0125,2020-100P,2026-06-11T12:47:37.028544,13.12443394,.00020113,87.8948,351.7792,82.5873,277.5484,0,U,47271,999,26389,.14297999E-3,.64E-6,0
ONEWEB-0126,2020-100Q,2026-06-11T13:17:06.040032,13.12442841,.00018438,87.8940,351.7912,93.6421,266.4919,0,U,47272,999,26396,-.1138157E-2,-.397E-5,0
ONEWEB-0127,2020-100R,2026-06-11T14:17:53.350368,13.12443260,.00017773,87.8936,351.7819,94.0711,266.0621,0,U,47273,999,26399,.12122445E-2,.449E-5,0
ONEWEB-0128,2020-100S,2026-06-11T12:59:48.611904,13.12442229,.00015238,87.8935,351.8065,84.6489,275.4814,0,U,47274,999,26400,-.63759308E-3,-.217E-5,0
ONEWEB-0129,2020-100T,2026-06-11T12:30:33.100416,13.12442717,.00021639,87.8947,351.7838,121.2681,238.8660,0,U,47275,999,26393,.11845326E-2,.439E-5,0
